[{"OBJECT_NAME":"ICEYE-X26","OBJECT_ID":"2023-084AF","EPOCH":"2026-03-09T22:36:43.632288","MEAN_MOTION":15.73279775,"ECCENTRICITY":9.181e-5,"INCLINATION":97.5771,"RA_OF_ASC_NODE":224.5701,"ARG_OF_PERICENTER":250.447,"MEAN_ANOMALY":109.6694,"EPHEMERIS_TYPE":0,"CLASSIFICATION_TYPE":"U","NORAD_CAT_ID":56961,"ELEMENT_SET_NO":999,"REV_AT_EPOCH":15354,"BSTAR":0.00052391916,"MEAN_MOTION_DOT":0.00072488,"MEAN_MOTION_DDOT":0},{"OBJECT_NAME":"STARLINK-11450 [DTC]","OBJECT_ID":"2025-004H","EPOCH":"2026-03-09T05:12:23.915808","MEAN_MOTION":15.70833528,"ECCENTRICITY":0.00025257,"INCLINATION":43.0011,"RA_OF_ASC_NODE":73.6252,"ARG_OF_PERICENTER":295.4446,"MEAN_ANOMALY":64.616,"EPHEMERIS_TYPE":0,"CLASSIFICATION_TYPE":"U","NORAD_CAT_ID":62518,"ELEMENT_SET_NO":999,"REV_AT_EPOCH":6713,"BSTAR":0.0015395604,"MEAN_MOTION_DOT":0.00201925,"MEAN_MOTION_DDOT":0}]
